# Made by eph2tle, compiled Feb  4 2023 13:58:51
# Run at Sun Feb 19 11:13:46 2023
#
# Max error 0.2   (Following TLEs should be good to at least 0.2 degrees)
#
#    The following TLEs (Two-Line Elements) were generated by fitting
# a numerically-integrated ephemeris,  based on the orbit given below,
# to the SDP4/SGP4 models.  Each TLE is good for the interval between
# its epoch and the epoch of the subsequent TLE (usually one day).
# The maximum deviation between the numerically integrated ephemerides
# and the TLE-based ephemeris, in kilometers,  is given for each TLE
# as the "worst residual".
#
#    This fitting is done using the 'eph2tle' code packaged with Find_Orb.
# The code has details on how the TLEs were computed :
#
#    https://github.com/Bill-Gray/find_orb/eph2tle.cpp
#
#    Be warned:  the error given is that between the numerically
# integrated ephems and the TLE model.  There will usually be at
# least some additional difference between the ephems and the actual
# motion of the satellite,  especially if the ephemerides are based
# on a short arc.  If the following orbital elements say something
# like "[based on] 10 observations 2015 Jan. 1-13",  and the TLEs
# are for 2015 May,  the extrapolation may be tenuous at best.  If
# your application requires a specific level of accuracy,  you may
# want to contact me;  I can give you some idea as to the fit of the
# underlying data (and possibly TLEs based on newer data).
#
#   You can usually find the underlying observational data,  and the
# fitted orbit,  residuals,  ephemerides,  and sometimes some comments
# about the object,  among the pages listed at
#
#    https://www.projectpluto.com/pluto/mpecs/pseudo.htm
#
#    WARNING:  for this object,  "normal" TLEs cannot be fitted.  (This
# usually means an object with an hyperbolic or nearly-parabolic orbit.)
# For this and similar cases,   an alternative model is used,  in which
# most of the traditional TLE data is replaced by six signed 8-digit hex
# numbers.  These six numbers are a state vector,  numerically integrated
# using a simplified force model.  This is necessary for objects at L2 or
# L1,  and sometimes for objects in high orbits where the SDP4/SGP4 model
# fails.  Some documentation is in 'get_el.cpp' in the source code at
# https://www.github.com/Bill-Gray/sat_code ; look for 'hex' in that file,
# with the actual integration done in 'sdp4.cpp'.  But be aware:  it's my
# own extension,  doesn't work with other code,  and is therefore used
# only when necessary.
#
#    Also,  if you use a TLE outside the "correct" time range (between
# its MJD and that of the next TLE),  all bets are off.  I've carefully
# computed and minimized the worst error over the "correct" time frame,
# but the ephemeris may (or may not) diverge wildly outside of it.
#
# Ephem range: 59925.000000 60096.000000 1.000000
# Created Sun Feb 19 11:13:42 2023
# Ephemeris start: 12 Dec 2022  0:00:00
# Ephemeris end:    1 Jun 2023  0:00:00
# Times are all TDT
# Positions/velocities are in equatorial J2000
# Orbital elements:  2022-168C = Hakuto-R/LFL booster = NORAD 54698
#    Perigee 2022 Dec 11.347 +/- 1.65e-5 TT =  8:19:41 (JD 2459924.847)
# Epoch 2022 Dec 12.0 TT = JDT 2459925.5                           Find_Orb
# M   2.586624 +/- 0.00014            (J2000 equator)
# n   3.961208 +/- 0.000271           Peri.  219.171 +/- 0.00026
# a853856.7 +/- 38.9                  Node    40.944 +/- 0.00015
# e   0.99213 +/- 1.87e-7             Incl.   29.096 +/- 0.00016
# P  90.88d                  H 26.84  G  0.15   U  7.2
# q 6713.973 +/- 0.206    Q 0.011370 +/- 5.19e-7
# From 87 observations 2022 Dec. 12-2023 Jan. 10; mean residual 0".612
#
# 1 NoradU COSPAR   Epoch.epoch     dn/dt/2  d2n/dt2/6 BSTAR    T El# C
# 2 NoradU Inclina RAAscNode Eccent  ArgPeri MeanAno  MeanMotion Rev# C

# Worst residual: 0.56 km
# MJD 59925.000000 (2022 Dec 12  0:00)
2022-168C = Hakuto-R/LFL booster = NORAD 54698
1 54698U 22168C   22345.99919926 +001ITQGI +002APU3C +000EM3KIH 18763
2 54698                          +0004KM1X +000B0Z5O +0002Y0TV     06

# Worst residual: 0.60 km
# MJD 59926.000000 (2022 Dec 13  0:00)
2022-168C = Hakuto-R/LFL booster = NORAD 54698
1 54698U 22168C   22346.99919926 +002CA1KA +004HJS75 +0010ULISH 18765
2 54698                          +0002OMCY +0007U7W4 +0002AUAO     06

# Worst residual: 0.66 km
# MJD 59927.000000 (2022 Dec 14  0:00)
2022-168C = Hakuto-R/LFL booster = NORAD 54698
1 54698U 22168C   22347.99919926 +002W9943 +0066WKBS +001J8SYNH 18764
2 54698                          +00020P68 +0006HV8B +0001ZFFY     05

# Worst residual: 0.96 km
# MJD 59928.000000 (2022 Dec 15  0:00)
2022-168C = Hakuto-R/LFL booster = NORAD 54698
1 54698U 22168C   22348.99919926 +003BZVC8 +007N9HR7 +001ZG7IZH 18769
2 54698                          +0001NJ3C +0005OG2N +0001S2H3     01

# Worst residual: 0.88 km
# MJD 59929.000000 (2022 Dec 16  0:00)
2022-168C = Hakuto-R/LFL booster = NORAD 54698
1 54698U 22168C   22349.99919926 +003P6UIS +008XQEYK +002E5RZSH 18762
2 54698                          +0001EY9B +00053VJ3 +0001MRY4     00

# Worst residual: 0.76 km
# MJD 59930.000000 (2022 Dec 17  0:00)
2022-168C = Hakuto-R/LFL booster = NORAD 54698
1 54698U 22168C   22350.99919926 +0040N9E0 +00A3XFIQ +002RRHQNH 18768
2 54698                          +00018TN9 +0004OF0F +0001IR66     09

# Worst residual: 0.94 km
# MJD 59931.000000 (2022 Dec 18  0:00)
2022-168C = Hakuto-R/LFL booster = NORAD 54698
1 54698U 22168C   22351.99919926 +004ATKY6 +00B6U7OA +0034IG0TH 18761
2 54698                          +0001461J +0004CAOU +0001FLV2     03

# Worst residual: 0.94 km
# MJD 59932.000000 (2022 Dec 19  0:00)
2022-168C = Hakuto-R/LFL booster = NORAD 54698
1 54698U 22168C   22352.99919926 +004K018Z +00C75115 +003GL4POH 18761
2 54698                          +00010GBY +00042JJE +0001D3WT     05

# Worst residual: 0.78 km
# MJD 59933.000000 (2022 Dec 20  0:00)
2022-168C = Hakuto-R/LFL booster = NORAD 54698
1 54698U 22168C   22353.99919926 +004SD8L9 +00D5BKIB +003S4I54H 18765
2 54698                          +0000XCQ5 +0003UK8V +0001B48I     03

# Worst residual: 0.59 km
# MJD 59934.000000 (2022 Dec 21  0:00)
2022-168C = Hakuto-R/LFL booster = NORAD 54698
1 54698U 22168C   22354.99919926 +00501HAO +00E1RD14 +00438I9HH 18760
2 54698                          +0000UN73 +0003NYO7 +00019JBY     04

# Worst residual: 0.51 km
# MJD 59935.000000 (2022 Dec 22  0:00)
2022-168C = Hakuto-R/LFL booster = NORAD 54698
1 54698U 22168C   22355.99919926 +00573EIR +00EWR21N +004E0COTH 18767
2 54698                          +0000S5WP +0003IGMG +00018AIF     01

# Worst residual: 0.63 km
# MJD 59936.000000 (2022 Dec 23  0:00)
2022-168C = Hakuto-R/LFL booster = NORAD 54698
1 54698U 22168C   22356.99919926 +005DKFWI +00FQJ5GE +004OINRPH 18760
2 54698                          +0000PSK6 +0003DU52 +00017BHP     08

# Worst residual: 0.83 km
# MJD 59937.000000 (2022 Dec 24  0:00)
2022-168C = Hakuto-R/LFL booster = NORAD 54698
1 54698U 22168C   22357.99919926 +005JH5NI +00GJAEOG +004YTJ14H 18766
2 54698                          +0000NG5T +00039WMF +00016K6I     04

# Worst residual: 0.94 km
# MJD 59938.000000 (2022 Dec 25  0:00)
2022-168C = Hakuto-R/LFL booster = NORAD 54698
1 54698U 22168C   22358.99919926 +005OTJIO +00HB64J1 +0058YKLBH 18767
2 54698                          +0000L2YD +00036IGP +00015YN3     04

# Worst residual: 0.82 km
# MJD 59939.000000 (2022 Dec 26  0:00)
2022-168C = Hakuto-R/LFL booster = NORAD 54698
1 54698U 22168C   22359.99919926 +005TLB0C +00I2ADDK +005IYYOTH 18761
2 54698                          +0000IOAO +00033IZI +00015H5F     01

# Worst residual: 0.52 km
# MJD 59940.000000 (2022 Dec 27  0:00)
2022-168C = Hakuto-R/LFL booster = NORAD 54698
1 54698U 22168C   22360.99919926 +005XS421 +00ISQ7BJ +005SVHX0H 18765
2 54698                          +0000G8EW +00030UH4 +000152AD     07

# Worst residual: 0.30 km
# MJD 59941.000000 (2022 Dec 28  0:00)
2022-168C = Hakuto-R/LFL booster = NORAD 54698
1 54698U 22168C   22361.99919926 +0061DR3W +00JIJWJM +0062OO4RH 18764
2 54698                          +0000DS2F +0002YE6C +00014OZP     09

# Worst residual: 0.23 km
# MJD 59942.000000 (2022 Dec 29  0:00)
2022-168C = Hakuto-R/LFL booster = NORAD 54698
1 54698U 22168C   22362.99919926 +0064E8AU +00K7T784 +006CERKTH 18763
2 54698                          +0000BC87 +0002W46R +00014CK0     06

# Worst residual: 0.45 km
# MJD 59943.000000 (2022 Dec 30  0:00)
2022-168C = Hakuto-R/LFL booster = NORAD 54698
1 54698U 22168C   22363.99919926 +0066TS5D +00KWJG7D +006M1XQ0H 18765
2 54698                          +00008XTZ +0002TZAK +000140KI     09

# Worst residual: 0.63 km
# MJD 59944.000000 (2022 Dec 31  0:00)
2022-168C = Hakuto-R/LFL booster = NORAD 54698
1 54698U 22168C   22364.99919926 +0068OUN1 +00LKRS49 +006VM9IQH 18768
2 54698                          +00006LNT +0002RYS4 +00013OUJ     00

# Worst residual: 0.69 km
# MJD 59945.000000 (2023 Jan  1  0:00)
2022-168C = Hakuto-R/LFL booster = NORAD 54698
1 54698U 22168C   22365.99919926 +006A01MB +00M8J724 +00753T1KH 18760
2 54698                          +00004CAF +0002Q2AG +00013DD2     08

# Worst residual: 0.65 km
# MJD 59946.000000 (2023 Jan  2  0:00)
2022-168C = Hakuto-R/LFL booster = NORAD 54698
1 54698U 22168C   23001.99919926 +006AS32B +00MVUN5D +007EIMLLH 18767
2 54698                          +0000263O +0002O9PM +0001326U     08

# Worst residual: 0.59 km
# MJD 59947.000000 (2023 Jan  3  0:00)
2022-168C = Hakuto-R/LFL booster = NORAD 54698
1 54698U 22168C   23002.99919926 +006B1RKC +00NIR2DA +007NUTHDH 18761
2 54698                          +000003BP +0002ML42 +00012RH5     03

# Worst residual: 0.69 km
# MJD 59948.000000 (2023 Jan  4  0:00)
2022-168C = Hakuto-R/LFL booster = NORAD 54698
1 54698U 22168C   23003.99919926 +006ATX4M +00O59FVJ +007X4IGRH 18761
2 54698                          -00001VXN +0002L0OS +00012HEX     01

